{"type": "FeatureCollection", "features": [ {"type": "Feature", "properties": {"norad_id": 34031, "name": "COSMOS 2251 DEB", "group": "cosmos-2251-debris", "lat": -0.4723804033387012, "lon": -50.283303507308375, "alt_km": 690.9702189904292, "timestamp": "2025-12-15T22:44:29.323789+00:00", "meta": {"OBJECT_NAME": "COSMOS 2251 DEB", "OBJECT_ID": "1993-036HS", "EPOCH": "2025-12-15T08:53:00.831264", "MEAN_MOTION": 14.59721149, "ECCENTRICITY": 0.00230112, "INCLINATION": 74.0124, "RA_OF_ASC_NODE": 130.6837, "ARG_OF_PERICENTER": 250.91, "MEAN_ANOMALY": 136.6475, "EPHEMERIS_TYPE": 0, "CLASSIFICATION_TYPE": "U", "NORAD_CAT_ID": 34031, "ELEMENT_SET_NO": 999, "REV_AT_EPOCH": 88604, "BSTAR": 0.00089833114, "MEAN_MOTION_DOT": 4.273e-05, "MEAN_MOTION_DDOT": 0}, "tle": {"line1": "1 34031U 93036HS  25349.37014851  .00004273  00000+0  89833-3 0  9993", "line2": "2 34031  74.0124 130.6837 0023011 250.9100 136.6475 14.59721149886044"}}, "geometry": {"type": "Point", "coordinates": [-50.283303507308375, -0.4723804033387012]}}, {"type": "Feature", "properties": {"norad_id": 34035, "name": "COSMOS 2251 DEB", "group": "cosmos-2251-debris", "lat": -67.44390620100741, "lon": -153.4343495655953, "alt_km": 725.988477564636, "timestamp": "2025-12-15T22:44:29.323799+00:00", "meta": {"OBJECT_NAME": "COSMOS 2251 DEB", "OBJECT_ID": "1993-036HW", "EPOCH": "2025-12-15T03:58:23.685024", "MEAN_MOTION": 14.51975892, "ECCENTRICITY": 0.00448723, "INCLINATION": 74.0656, "RA_OF_ASC_NODE": 344.5777, "ARG_OF_PERICENTER": 345.5597, "MEAN_ANOMALY": 142.7606, "EPHEMERIS_TYPE": 0, "CLASSIFICATION_TYPE": "U", "NORAD_CAT_ID": 34035, "ELEMENT_SET_NO": 999, "REV_AT_EPOCH": 88001, "BSTAR": 0.0011160343, "MEAN_MOTION_DOT": 4.54e-05, "MEAN_MOTION_DDOT": 0}, "tle": {"line1": "1 34035U 93036HW  25349.16555191  .00004540  00000+0  11160-2 0  9995", "line2": "2 34035  74.0656 344.5777 0044872 345.5597 142.7606 14.51975892880019"}}, "geometry": {"type": "Point", "coordinates": [-153.4343495655953, -67.44390620100741]}}, {"type": "Feature", "properties": {"norad_id": 34036, "name": "COSMOS 2251 DEB", "group": "cosmos-2251-debris", "lat": -62.937175759634435, "lon": 108.67165869291257, "alt_km": 592.3182996086016, "timestamp": "2025-12-15T22:44:29.323809+00:00", "meta": {"OBJECT_NAME": "COSMOS 2251 DEB", "OBJECT_ID": "1993-036HX", "EPOCH": "2025-12-15T05:22:52.514688", "MEAN_MOTION": 14.95190148, "ECCENTRICITY": 0.00117377, "INCLINATION": 74.0192, "RA_OF_ASC_NODE": 144.2511, "ARG_OF_PERICENTER": 175.8431, "MEAN_ANOMALY": 184.2853, "EPHEMERIS_TYPE": 0, "CLASSIFICATION_TYPE": "U", "NORAD_CAT_ID": 34036, "ELEMENT_SET_NO": 999, "REV_AT_EPOCH": 88607, "BSTAR": 0.0025585474, "MEAN_MOTION_DOT": 0.00028233, "MEAN_MOTION_DDOT": 0}, "tle": {"line1": "1 34036U 93036HX  25349.22421892  .00028233  00000+0  25585-2 0  9994", "line2": "2 34036  74.0192 144.2511 0011737 175.8431 184.2853 14.95190148886079"}}, "geometry": {"type": "Point", "coordinates": [108.67165869291257, -62.937175759634435]}}, {"type": "Feature", "properties": {"norad_id": 34037, "name": "COSMOS 2251 DEB", "group": "cosmos-2251-debris", "lat": 13.008811753128384, "lon": 48.36014734054571, "alt_km": 770.2928564163085, "timestamp": "2025-12-15T22:44:29.323819+00:00", "meta": {"OBJECT_NAME": "COSMOS 2251 DEB", "OBJECT_ID": "1993-036HY", "EPOCH": "2025-12-15T04:16:11.199360", "MEAN_MOTION": 14.34671243, "ECCENTRICITY": 0.00519287, "INCLINATION": 74.0515, "RA_OF_ASC_NODE": 45.9802, "ARG_OF_PERICENTER": 95.2603, "MEAN_ANOMALY": 265.4478, "EPHEMERIS_TYPE": 0, "CLASSIFICATION_TYPE": "U", "NORAD_CAT_ID": 34037, "ELEMENT_SET_NO": 999, "REV_AT_EPOCH": 87752, "BSTAR": 0.00044279405, "MEAN_MOTION_DOT": 1.247e-05, "MEAN_MOTION_DDOT": 0}, "tle": {"line1": "1 34037U 93036HY  25349.17790740  .00001247  00000+0  44279-3 0  9998", "line2": "2 34037  74.0515  45.9802 0051928  95.2603 265.4478 14.34671243877529"}}, "geometry": {"type": "Point", "coordinates": [48.36014734054571, 13.008811753128384]}}, {"type": "Feature", "properties": {"norad_id": 34040, "name": "COSMOS 2251 DEB", "group": "cosmos-2251-debris", "lat": -36.02872042907518, "lon": -107.356446236991, "alt_km": 1240.578013544171, "timestamp": "2025-12-15T22:44:29.323830+00:00", "meta": {"OBJECT_NAME": "COSMOS 2251 DEB", "OBJECT_ID": "1993-036JB", "EPOCH": "2025-12-15T07:38:28.783680", "MEAN_MOTION": 13.68378088, "ECCENTRICITY": 0.03431038, "INCLINATION": 73.9559, "RA_OF_ASC_NODE": 61.6023, "ARG_OF_PERICENTER": 14.4481, "MEAN_ANOMALY": 346.6148, "EPHEMERIS_TYPE": 0, "CLASSIFICATION_TYPE": "U", "NORAD_CAT_ID": 34040, "ELEMENT_SET_NO": 999, "REV_AT_EPOCH": 83635, "BSTAR": 0.00050672716, "MEAN_MOTION_DOT": 6.31e-06, "MEAN_MOTION_DDOT": 0}, "tle": {"line1": "1 34040U 93036JB  25349.31838870  .00000631  00000+0  50673-3 0  9996", "line2": "2 34040  73.9559  61.6023 0343103  14.4481 346.6148 13.68378088836354"}}, "geometry": {"type": "Point", "coordinates": [-107.356446236991, -36.02872042907518]}}, {"type": "Feature", "properties": {"norad_id": 34045, "name": "COSMOS 2251 DEB", "group": "cosmos-2251-debris", "lat": 49.242929097385414, "lon": -35.644201884181584, "alt_km": 756.5379855195024, "timestamp": "2025-12-15T22:44:29.323840+00:00", "meta": {"OBJECT_NAME": "COSMOS 2251 DEB", "OBJECT_ID": "1993-036JG", "EPOCH": "2025-12-15T08:08:10.100256", "MEAN_MOTION": 14.34070288, "ECCENTRICITY": 0.00257816, "INCLINATION": 74.0393, "RA_OF_ASC_NODE": 306.0753, "ARG_OF_PERICENTER": 28.8072, "MEAN_ANOMALY": 122.6236, "EPHEMERIS_TYPE": 0, "CLASSIFICATION_TYPE": "U", "NORAD_CAT_ID": 34045, "ELEMENT_SET_NO": 999, "REV_AT_EPOCH": 88070, "BSTAR": 0.00010164652, "MEAN_MOTION_DOT": 2.59e-06, "MEAN_MOTION_DDOT": 0}, "tle": {"line1": "1 34045U 93036JG  25349.33900579  .00000259  00000+0  10165-3 0  9997", "line2": "2 34045  74.0393 306.0753 0025781  28.8072 122.6236 14.34070288880700"}}, "geometry": {"type": "Point", "coordinates": [-35.644201884181584, 49.242929097385414]}}, {"type": "Feature", "properties": {"norad_id": 34046, "name": "COSMOS 2251 DEB", "group": "cosmos-2251-debris", "lat": -4.822342795010186, "lon": -174.13191068397006, "alt_km": 747.2439263787628, "timestamp": "2025-12-15T22:44:29.323850+00:00", "meta": {"OBJECT_NAME": "COSMOS 2251 DEB", "OBJECT_ID": "1993-036JH", "EPOCH": "2025-12-15T02:15:20.565792", "MEAN_MOTION": 14.46494483, "ECCENTRICITY": 0.00744337, "INCLINATION": 74.0401, "RA_OF_ASC_NODE": 6.0776, "ARG_OF_PERICENTER": 88.7877, "MEAN_ANOMALY": 332.1824, "EPHEMERIS_TYPE": 0, "CLASSIFICATION_TYPE": "U", "NORAD_CAT_ID": 34046, "ELEMENT_SET_NO": 999, "REV_AT_EPOCH": 87860, "BSTAR": 0.00082965873, "MEAN_MOTION_DOT": 3.064e-05, "MEAN_MOTION_DDOT": 0}, "tle": {"line1": "1 34046U 93036JH  25349.09398803  .00003064  00000+0  82966-3 0  9997", "line2": "2 34046  74.0401   6.0776 0074433  88.7877 332.1824 14.46494483878606"}}, "geometry": {"type": "Point", "coordinates": [-174.13191068397006, -4.822342795010186]}}, {"type": "Feature", "properties": {"norad_id": 34050, "name": "COSMOS 2251 DEB", "group": "cosmos-2251-debris", "lat": -20.7664486730497, "lon": -169.24020161188483, "alt_km": 1017.6480946895554, "timestamp": "2025-12-15T22:44:29.323861+00:00", "meta": {"OBJECT_NAME": "COSMOS 2251 DEB", "OBJECT_ID": "1993-036JM", "EPOCH": "2025-12-15T04:59:17.286144", "MEAN_MOTION": 13.961862, "ECCENTRICITY": 0.02145726, "INCLINATION": 74.0883, "RA_OF_ASC_NODE": 5.8185, "ARG_OF_PERICENTER": 69.4975, "MEAN_ANOMALY": 13.6246, "EPHEMERIS_TYPE": 0, "CLASSIFICATION_TYPE": "U", "NORAD_CAT_ID": 34050, "ELEMENT_SET_NO": 999, "REV_AT_EPOCH": 85466, "BSTAR": 0.00061549966, "MEAN_MOTION_DOT": 1.005e-05, "MEAN_MOTION_DDOT": 0}, "tle": {"line1": "1 34050U 93036JM  25349.20783896  .00001005  00000+0  61550-3 0  9994", "line2": "2 34050  74.0883   5.8185 0214572  69.4975  13.6246 13.96186200854669"}}, "geometry": {"type": "Point", "coordinates": [-169.24020161188483, -20.7664486730497]}}, {"type": "Feature", "properties": {"norad_id": 34053, "name": "COSMOS 2251 DEB", "group": "cosmos-2251-debris", "lat": -12.462417986909486, "lon": -126.6704946255203, "alt_km": 825.9751147420939, "timestamp": "2025-12-15T22:44:29.323871+00:00", "meta": {"OBJECT_NAME": "COSMOS 2251 DEB", "OBJECT_ID": "1993-036JQ", "EPOCH": "2025-12-15T03:13:36.627744", "MEAN_MOTION": 13.49164838, "ECCENTRICITY": 0.04223664, "INCLINATION": 73.8438, "RA_OF_ASC_NODE": 238.3125, "ARG_OF_PERICENTER": 26.4656, "MEAN_ANOMALY": 335.7356, "EPHEMERIS_TYPE": 0, "CLASSIFICATION_TYPE": "U", "NORAD_CAT_ID": 34053, "ELEMENT_SET_NO": 999, "REV_AT_EPOCH": 82716, "BSTAR": 0.00071936002, "MEAN_MOTION_DOT": 7.63e-06, "MEAN_MOTION_DDOT": 0}, "tle": {"line1": "1 34053U 93036JQ  25349.13445171  .00000763  00000+0  71936-3 0  9999", "line2": "2 34053  73.8438 238.3125 0422366  26.4656 335.7356 13.49164838827169"}}, "geometry": {"type": "Point", "coordinates": [-126.6704946255203, -12.462417986909486]}}, {"type": "Feature", "properties": {"norad_id": 34056, "name": "COSMOS 2251 DEB", "group": "cosmos-2251-debris", "lat": -73.8461432362798, "lon": -28.710113624319586, "alt_km": 907.2599201452567, "timestamp": "2025-12-15T22:44:29.323881+00:00", "meta": {"OBJECT_NAME": "COSMOS 2251 DEB", "OBJECT_ID": "1993-036JT", "EPOCH": "2025-12-15T08:16:49.707264", "MEAN_MOTION": 14.20567852, "ECCENTRICITY": 0.01239833, "INCLINATION": 74.0595, "RA_OF_ASC_NODE": 71.7187, "ARG_OF_PERICENTER": 118.8635, "MEAN_ANOMALY": 307.6145, "EPHEMERIS_TYPE": 0, "CLASSIFICATION_TYPE": "U", "NORAD_CAT_ID": 34056, "ELEMENT_SET_NO": 999, "REV_AT_EPOCH": 86448, "BSTAR": 0.00072601988, "MEAN_MOTION_DOT": 1.663e-05, "MEAN_MOTION_DDOT": 0}, "tle": {"line1": "1 34056U 93036JT  25349.34501976  .00001663  00000+0  72602-3 0  9992", "line2": "2 34056  74.0595  71.7187 0123983 118.8635 307.6145 14.20567852864485"}}, "geometry": {"type": "Point", "coordinates": [-28.710113624319586, -73.8461432362798]}}]}